STARLINK-2195
1 17772C 21017BC  21326.12377480  .00005661  00000-0  37923-3 0  3263
2 17772  53.0550  63.1758 0001276  83.5729 322.8222 15.06399845    19
